start=new Date('2021-12-21T00:00:00.000Z').valueOf();
sats=[{"DECAY_DATE":null,"FILE":"3245895","SEMIMAJOR_AXIS":"6925.321","CLASSIFICATION_TYPE":"U","REV_AT_EPOCH":"6532","SITE":"AFETR","EPHEMERIS_TYPE":"0","INCLINATION":"53.0544","MEAN_ELEMENT_THEORY":"SGP4","MEAN_MOTION":"15.06409005","MEAN_ANOMALY":"324.7442","COUNTRY_CODE":"US","TLE_LINE2":"2 46694  53.0544 294.1706 0004489  35.3844 324.7442 15.06409005 65325","CENTER_NAME":"EARTH","TIME_SYSTEM":"UTC","REF_FRAME":"TEME","RA_OF_ASC_NODE":"294.1706","PERIOD":"95.592","OBJECT_TYPE":"PAYLOAD","TLE_LINE1":"1 46694U 20073AA  21354.86555145  .00003318  00000-0  24150-3 0  9995","ARG_OF_PERICENTER":"35.3844","RCS_SIZE":"LARGE","ELEMENT_SET_NO":"999","OBJECT_ID":"2020-073AA","PERIAPSIS":"544.077","ECCENTRICITY":"0.00044890","GP_ID":"192113211","NORAD_CAT_ID":"46694","BSTAR":"0.00024150000000","EPOCH":"2021-12-20T20:46:23.645280","OBJECT_NAME":"STARLINK-1793","LAUNCH_DATE":"2020-10-18","MEAN_MOTION_DDOT":"0.0000000000000","MEAN_MOTION_DOT":"0.00003318","APOAPSIS":"550.295"},{"GP_ID":"192113462","BSTAR":"0.00016654000000","NORAD_CAT_ID":"46696","OBJECT_ID":"2020-073AC","ELEMENT_SET_NO":"999","ECCENTRICITY":"0.00021160","PERIAPSIS":"545.741","APOAPSIS":"548.672","LAUNCH_DATE":"2020-10-18","OBJECT_NAME":"STARLINK-1795","EPOCH":"2021-12-20T13:15:14.330880","MEAN_MOTION_DOT":"0.00002200","MEAN_MOTION_DDOT":"0.0000000000000","REF_FRAME":"TEME","RCS_SIZE":"LARGE","PERIOD":"95.592","RA_OF_ASC_NODE":"295.5563","ARG_OF_PERICENTER":"61.3840","TLE_LINE1":"1 46696U 20073AC  21354.55224920  .00002200  00000-0  16654-3 0  9996","OBJECT_TYPE":"PAYLOAD","MEAN_MOTION":"15.06402373","MEAN_ANOMALY":"298.7362","CENTER_NAME":"EARTH","TIME_SYSTEM":"UTC","COUNTRY_CODE":"US","TLE_LINE2":"2 46696  53.0557 295.5563 0002116  61.3840 298.7362 15.06402373 65273","SEMIMAJOR_AXIS":"6925.341","CLASSIFICATION_TYPE":"U","DECAY_DATE":null,"FILE":"3245895","INCLINATION":"53.0557","SITE":"AFETR","EPHEMERIS_TYPE":"0","MEAN_ELEMENT_THEORY":"SGP4","REV_AT_EPOCH":"6527"},{"TLE_LINE2":"2 46698  53.0543 313.8192 0001987  55.3582 304.7594 15.06409128 65059","COUNTRY_CODE":"US","TIME_SYSTEM":"UTC","CENTER_NAME":"EARTH","MEAN_ANOMALY":"304.7594","MEAN_MOTION":"15.06409128","REV_AT_EPOCH":"6505","MEAN_ELEMENT_THEORY":"SGP4","INCLINATION":"53.0543","SITE":"AFETR","EPHEMERIS_TYPE":"0","FILE":"3245895","DECAY_DATE":null,"CLASSIFICATION_TYPE":"U","SEMIMAJOR_AXIS":"6925.321","MEAN_MOTION_DOT":"0.00003760","MEAN_MOTION_DDOT":"0.0000000000000","OBJECT_NAME":"STARLINK-1797","LAUNCH_DATE":"2020-10-18","EPOCH":"2021-12-20T22:35:12.027552","APOAPSIS":"548.562","ECCENTRICITY":"0.00019870","PERIAPSIS":"545.810","ELEMENT_SET_NO":"999","OBJECT_ID":"2020-073AE","GP_ID":"192112210","BSTAR":"0.00027113000000","NORAD_CAT_ID":"46698","ARG_OF_PERICENTER":"55.3582","OBJECT_TYPE":"PAYLOAD","TLE_LINE1":"1 46698U 20073AE  21354.94111143  .00003760  00000-0  27113-3 0  9997","PERIOD":"95.592","RA_OF_ASC_NODE":"313.8192","RCS_SIZE":"LARGE","REF_FRAME":"TEME"},{"TLE_LINE2":"2 46699  53.0562 314.1078 0001897  61.3331 298.7848 15.06406000 65046","COUNTRY_CODE":"US","TIME_SYSTEM":"UTC","CENTER_NAME":"EARTH","MEAN_ANOMALY":"298.7848","MEAN_MOTION":"15.06406000","REV_AT_EPOCH":"6504","MEAN_ELEMENT_THEORY":"SGP4","INCLINATION":"53.0562","SITE":"AFETR","EPHEMERIS_TYPE":"0","FILE":"3245895","DECAY_DATE":null,"CLASSIFICATION_TYPE":"U","SEMIMAJOR_AXIS":"6925.330","MEAN_MOTION_DOT":"0.00001870","MEAN_MOTION_DDOT":"0.0000000000000","LAUNCH_DATE":"2020-10-18","OBJECT_NAME":"STARLINK-1799","EPOCH":"2021-12-20T21:04:58.263168","APOAPSIS":"548.509","ECCENTRICITY":"0.00018970","PERIAPSIS":"545.881","ELEMENT_SET_NO":"999","OBJECT_ID":"2020-073AF","GP_ID":"192112460","BSTAR":"0.00014438000000","NORAD_CAT_ID":"46699","ARG_OF_PERICENTER":"61.3331","TLE_LINE1":"1 46699U 20073AF  21354.87845212  .00001870  00000-0  14438-3 0  9997","OBJECT_TYPE":"PAYLOAD","PERIOD":"95.592","RA_OF_ASC_NODE":"314.1078","RCS_SIZE":"LARGE","REF_FRAME":"TEME"},{"APOAPSIS":"548.572","MEAN_MOTION_DOT":"0.00002183","MEAN_MOTION_DDOT":"0.0000000000000","OBJECT_NAME":"STARLINK-1800","LAUNCH_DATE":"2020-10-18","EPOCH":"2021-12-20T21:10:55.548768","GP_ID":"192112712","NORAD_CAT_ID":"46700","BSTAR":"0.00016534000000","ECCENTRICITY":"0.00020290","PERIAPSIS":"545.762","ELEMENT_SET_NO":"999","OBJECT_ID":"2020-073AG","RCS_SIZE":"LARGE","ARG_OF_PERICENTER":"55.7956","OBJECT_TYPE":"PAYLOAD","TLE_LINE1":"1 46700U 20073AG  21354.88258737  .00002183  00000-0  16534-3 0  9998","PERIOD":"95.591","RA_OF_ASC_NODE":"329.0762","REF_FRAME":"TEME","TIME_SYSTEM":"UTC","CENTER_NAME":"EARTH","TLE_LINE2":"2 46700  53.0538 329.0762 0002029  55.7956 304.3224 15.06415161 64831","COUNTRY_CODE":"US","MEAN_MOTION":"15.06415161","MEAN_ANOMALY":"304.3224","MEAN_ELEMENT_THEORY":"SGP4","INCLINATION":"53.0538","EPHEMERIS_TYPE":"0","SITE":"AFETR","REV_AT_EPOCH":"6483","CLASSIFICATION_TYPE":"U","SEMIMAJOR_AXIS":"6925.302","FILE":"3245895","DECAY_DATE":null},{"ELEMENT_SET_NO":"999","OBJECT_ID":"2020-073AH","ECCENTRICITY":"0.00022000","PERIAPSIS":"545.657","GP_ID":"192112963","NORAD_CAT_ID":"46701","BSTAR":"0.00025512000000","LAUNCH_DATE":"2020-10-18","OBJECT_NAME":"STARLINK-1801","EPOCH":"2021-12-20T21:58:03.602208","MEAN_MOTION_DOT":"0.00003521","MEAN_MOTION_DDOT":"0.0000000000000","APOAPSIS":"548.704","REF_FRAME":"TEME","PERIOD":"95.591","RA_OF_ASC_NODE":"313.9279","ARG_OF_PERICENTER":"61.6010","TLE_LINE1":"1 46701U 20073AH  21354.91531947  .00003521  00000-0  25512-3 0  9993","OBJECT_TYPE":"PAYLOAD","RCS_SIZE":"LARGE","MEAN_ANOMALY":"298.5201","MEAN_MOTION":"15.06410914","COUNTRY_CODE":"US","TLE_LINE2":"2 46701  53.0557 313.9279 0002200  61.6010 298.5201 15.06410914 65051","CENTER_NAME":"EARTH","TIME_SYSTEM":"UTC","DECAY_DATE":null,"FILE":"3245895","SEMIMAJOR_AXIS":"6925.315","CLASSIFICATION_TYPE":"U","REV_AT_EPOCH":"6505","INCLINATION":"53.0557","SITE":"AFETR","EPHEMERIS_TYPE":"0","MEAN_ELEMENT_THEORY":"SGP4"},{"REF_FRAME":"TEME","PERIOD":"95.592","RA_OF_ASC_NODE":"294.1857","ARG_OF_PERICENTER":"49.0333","TLE_LINE1":"1 46702U 20073AJ  21354.86186969  .00002449  00000-0  18324-3 0  9999","OBJECT_TYPE":"PAYLOAD","RCS_SIZE":"LARGE","ELEMENT_SET_NO":"999","OBJECT_ID":"2020-073AJ","ECCENTRICITY":"0.00019490","PERIAPSIS":"545.848","GP_ID":"192111711","BSTAR":"0.00018324000000","NORAD_CAT_ID":"46702","LAUNCH_DATE":"2020-10-18","OBJECT_NAME":"STARLINK-1802","EPOCH":"2021-12-20T20:41:05.541216","MEAN_MOTION_DOT":"0.00002449","MEAN_MOTION_DDOT":"0.0000000000000","APOAPSIS":"548.548","DECAY_DATE":null,"FILE":"3245895","SEMIMAJOR_AXIS":"6925.333","CLASSIFICATION_TYPE":"U","REV_AT_EPOCH":"6532","INCLINATION":"53.0544","SITE":"AFETR","EPHEMERIS_TYPE":"0","MEAN_ELEMENT_THEORY":"SGP4","MEAN_ANOMALY":"311.0824","MEAN_MOTION":"15.06405129","COUNTRY_CODE":"US","TLE_LINE2":"2 46702  53.0544 294.1857 0001949  49.0333 311.0824 15.06405129 65321","CENTER_NAME":"EARTH","TIME_SYSTEM":"UTC"},{"MEAN_MOTION_DOT":"0.00000985","MEAN_MOTION_DDOT":"0.0000000000000","LAUNCH_DATE":"2020-10-18","OBJECT_NAME":"STARLINK-1803","EPOCH":"2021-12-20T21:26:11.544288","APOAPSIS":"548.531","ECCENTRICITY":"0.00019590","PERIAPSIS":"545.818","OBJECT_ID":"2020-073AK","ELEMENT_SET_NO":"999","GP_ID":"192111961","BSTAR":"0.00008501300000","NORAD_CAT_ID":"46703","ARG_OF_PERICENTER":"58.6774","TLE_LINE1":"1 46703U 20073AK  21354.89318917  .00000985  00000-0  85013-4 0  9996","OBJECT_TYPE":"PAYLOAD","PERIOD":"95.591","RA_OF_ASC_NODE":"314.0356","RCS_SIZE":"LARGE","REF_FRAME":"TEME","TLE_LINE2":"2 46703  53.0538 314.0356 0001959  58.6774 301.4407 15.06412714 65044","COUNTRY_CODE":"US","TIME_SYSTEM":"UTC","CENTER_NAME":"EARTH","MEAN_MOTION":"15.06412714","MEAN_ANOMALY":"301.4407","REV_AT_EPOCH":"6504","MEAN_ELEMENT_THEORY":"SGP4","INCLINATION":"53.0538","EPHEMERIS_TYPE":"0","SITE":"AFETR","FILE":"3245895","DECAY_DATE":null,"CLASSIFICATION_TYPE":"U","SEMIMAJOR_AXIS":"6925.310"},{"MEAN_MOTION_DOT":"0.00002116","MEAN_MOTION_DDOT":"0.0000000000000","LAUNCH_DATE":"2020-10-18","OBJECT_NAME":"STARLINK-1804","EPOCH":"2021-12-20T20:57:00.405504","APOAPSIS":"549.233","ECCENTRICITY":"0.00029290","PERIAPSIS":"545.176","ELEMENT_SET_NO":"999","OBJECT_ID":"2020-073AL","GP_ID":"192113212","NORAD_CAT_ID":"46704","BSTAR":"0.00016094000000","ARG_OF_PERICENTER":"41.3875","TLE_LINE1":"1 46704U 20073AL  21354.87292136  .00002116  00000-0  16094-3 0  9999","OBJECT_TYPE":"PAYLOAD","PERIOD":"95.592","RA_OF_ASC_NODE":"294.1203","RCS_SIZE":"LARGE","REF_FRAME":"TEME","TLE_LINE2":"2 46704  53.0573 294.1203 0002929  41.3875 318.7335 15.06402899 65327","COUNTRY_CODE":"US","TIME_SYSTEM":"UTC","CENTER_NAME":"EARTH","MEAN_ANOMALY":"318.7335","MEAN_MOTION":"15.06402899","REV_AT_EPOCH":"6532","MEAN_ELEMENT_THEORY":"SGP4","INCLINATION":"53.0573","EPHEMERIS_TYPE":"0","SITE":"AFETR","FILE":"3245895","DECAY_DATE":null,"CLASSIFICATION_TYPE":"U","SEMIMAJOR_AXIS":"6925.340"},{"MEAN_MOTION_DDOT":"0.0000000000000","MEAN_MOTION_DOT":"0.00002699","EPOCH":"2021-12-20T21:16:14.818368","LAUNCH_DATE":"2020-10-18","OBJECT_NAME":"STARLINK-1805","APOAPSIS":"548.651","PERIAPSIS":"545.727","ECCENTRICITY":"0.00021110","OBJECT_ID":"2020-073AM","ELEMENT_SET_NO":"999","NORAD_CAT_ID":"46705","GP_ID":"192113463","BSTAR":"0.00019999000000","TLE_LINE1":"1 46705U 20073AM  21354.88628262  .00002699  00000-0  19999-3 0  9997","OBJECT_TYPE":"PAYLOAD","ARG_OF_PERICENTER":"46.4244","RA_OF_ASC_NODE":"329.0554","PERIOD":"95.592","RCS_SIZE":"LARGE","REF_FRAME":"TEME","TLE_LINE2":"2 46705  53.0546 329.0554 0002111  46.4244 313.6920 15.06407984 64833","COUNTRY_CODE":"US","TIME_SYSTEM":"UTC","CENTER_NAME":"EARTH","MEAN_ANOMALY":"313.6920","MEAN_MOTION":"15.06407984","REV_AT_EPOCH":"6483","MEAN_ELEMENT_THEORY":"SGP4","EPHEMERIS_TYPE":"0","SITE":"AFETR","INCLINATION":"53.0546","FILE":"3245895","DECAY_DATE":null,"CLASSIFICATION_TYPE":"U","SEMIMAJOR_AXIS":"6925.324"}];
